ONEWEB-0387             
1 49313U 21090AL  24195.58606795  .00000009  00000+0 -91516-5 0  9995
2 49313  87.9193  54.4864 0001819  95.8247 264.3093 13.20770542136945
ONEWEB-0388             
1 49314U 21090AM  24195.60053346 -.00000264  00000+0 -69168-3 0  9997
2 49314  87.9141  84.9810 0002025  78.2575 281.8785 13.19725579133618
ONEWEB-0389             
1 50469U 21132A   24195.57484259  .00000124  00000+0  28591-3 0  9992
2 50469  87.9186 145.9604 0002016  94.3143 265.8219 13.17650525125429
ONEWEB-0390             
1 50470U 21132B   24195.57646436  .00000160  00000+0  37918-3 0  9994
2 50470  87.9185 145.9676 0001687  83.5500 276.5824 13.17651644125423
ONEWEB-0391             
1 50471U 21132C   24195.57807394  .00000147  00000+0  34666-3 0  9999
2 50471  87.9194 145.9523 0002140  91.6857 268.4519 13.17650819125429
ONEWEB-0392             
1 50472U 21132D   24195.37935198  .00000088  00000+0  19258-3 0  9996
2 50472  87.9178 145.9882 0002090  97.9111 262.2257 13.17649820125438
ONEWEB-0393             
1 50473U 21132E   24195.58146320  .00000080  00000+0  17359-3 0  9993
2 50473  87.9189 145.9273 0002036  89.1202 271.0162 13.17647945125450
ONEWEB-0394             
1 50474U 21132F   24195.49506814  .00000158  00000+0  36765-3 0  9990
2 50474  87.9146 115.5452 0002086  81.0833 279.0535 13.18687025128855
